CCSDS_OMM_VERS = 2.0
CREATION_DATE  = 
ORIGINATOR     = 

OBJECT_NAME    = ENVISAT
OBJECT_ID      = 2002-009A
CENTER_NAME    = EARTH
REF_FRAME      = TEME
TIME_SYSTEM    = UTC
MEAN_ELEMENT_THEORY = SGP/SGP4

EPOCH          = 2025-11-30T20:48:20.162592
MEAN_MOTION    = 14.38992000
ECCENTRICITY   = .0001191
INCLINATION    = 98.3582
RA_OF_ASC_NODE = 285.9096
ARG_OF_PERICENTER = 81.9352
MEAN_ANOMALY   = 290.7292

EPHEMERIS_TYPE = 0
CLASSIFICATION_TYPE = U
NORAD_CAT_ID   = 27386
ELEMENT_SET_NO = 999
REV_AT_EPOCH   = 24496
BSTAR          = .60807177E-4
MEAN_MOTION_DOT = .145E-5
MEAN_MOTION_DDOT = 0

CCSDS_OMM_VERS = 2.0
CREATION_DATE  = 
ORIGINATOR     = 

OBJECT_NAME    = IDEFIX & ARIANE 42P R/B
OBJECT_ID      = 2002-021B
CENTER_NAME    = EARTH
REF_FRAME      = TEME
TIME_SYSTEM    = UTC
MEAN_ELEMENT_THEORY = SGP/SGP4

EPOCH          = 2025-11-30T18:23:10.866336
MEAN_MOTION    = 14.30935802
ECCENTRICITY   = .00127637
INCLINATION    = 98.5769
RA_OF_ASC_NODE = 269.6134
ARG_OF_PERICENTER = 115.9502
MEAN_ANOMALY   = 244.2998

EPHEMERIS_TYPE = 0
CLASSIFICATION_TYPE = U
NORAD_CAT_ID   = 27422
ELEMENT_SET_NO = 999
REV_AT_EPOCH   = 22987
BSTAR          = .14073672E-3
MEAN_MOTION_DOT = .326E-5
MEAN_MOTION_DDOT = 0

CCSDS_OMM_VERS = 2.0
CREATION_DATE  = 
ORIGINATOR     = 

OBJECT_NAME    = AQUA
OBJECT_ID      = 2002-022A
CENTER_NAME    = EARTH
REF_FRAME      = TEME
TIME_SYSTEM    = UTC
MEAN_ELEMENT_THEORY = SGP/SGP4

EPOCH          = 2025-11-30T23:31:58.092672
MEAN_MOTION    = 14.61762881
ECCENTRICITY   = .000068
INCLINATION    = 98.4021
RA_OF_ASC_NODE = 295.6699
ARG_OF_PERICENTER = 103.9893
MEAN_ANOMALY   = 296.2222

EPHEMERIS_TYPE = 0
CLASSIFICATION_TYPE = U
NORAD_CAT_ID   = 27424
ELEMENT_SET_NO = 999
REV_AT_EPOCH   = 25431
BSTAR          = .25794165E-3
MEAN_MOTION_DOT = .1237E-4
MEAN_MOTION_DDOT = 0

CCSDS_OMM_VERS = 2.0
CREATION_DATE  = 
ORIGINATOR     = 

OBJECT_NAME    = CZ-4B R/B
OBJECT_ID      = 2002-024C
CENTER_NAME    = EARTH
REF_FRAME      = TEME
TIME_SYSTEM    = UTC
MEAN_ELEMENT_THEORY = SGP/SGP4

EPOCH          = 2025-11-30T22:13:05.970720
MEAN_MOTION    = 14.14523824
ECCENTRICITY   = .0049273
INCLINATION    = 98.9018
RA_OF_ASC_NODE = 23.7377
ARG_OF_PERICENTER = 304.1197
MEAN_ANOMALY   = 229.5581

EPHEMERIS_TYPE = 0
CLASSIFICATION_TYPE = U
NORAD_CAT_ID   = 27432
ELEMENT_SET_NO = 999
REV_AT_EPOCH   = 21527
BSTAR          = .5753081E-4
MEAN_MOTION_DOT = .67E-6
MEAN_MOTION_DDOT = 0

CCSDS_OMM_VERS = 2.0
CREATION_DATE  = 
ORIGINATOR     = 

OBJECT_NAME    = MIDORI II (ADEOS-II)
OBJECT_ID      = 2002-056A
CENTER_NAME    = EARTH
REF_FRAME      = TEME
TIME_SYSTEM    = UTC
MEAN_ELEMENT_THEORY = SGP/SGP4

EPOCH          = 2025-11-30T21:12:48.554784
MEAN_MOTION    = 14.29192650
ECCENTRICITY   = .00004552
INCLINATION    = 98.7617
RA_OF_ASC_NODE = 287.7791
ARG_OF_PERICENTER = 11.6462
MEAN_ANOMALY   = 348.4730

EPHEMERIS_TYPE = 0
CLASSIFICATION_TYPE = U
NORAD_CAT_ID   = 27597
ELEMENT_SET_NO = 999
REV_AT_EPOCH   = 19618
BSTAR          = .14571706E-3
MEAN_MOTION_DOT = .325E-5
MEAN_MOTION_DDOT = 0

CCSDS_OMM_VERS = 2.0
CREATION_DATE  = 
ORIGINATOR     = 

OBJECT_NAME    = H-2A R/B
OBJECT_ID      = 2002-056E
CENTER_NAME    = EARTH
REF_FRAME      = TEME
TIME_SYSTEM    = UTC
MEAN_ELEMENT_THEORY = SGP/SGP4

EPOCH          = 2025-11-30T21:15:11.538144
MEAN_MOTION    = 14.33660970
ECCENTRICITY   = .00714847
INCLINATION    = 98.3050
RA_OF_ASC_NODE = 294.1157
ARG_OF_PERICENTER = 95.8956
MEAN_ANOMALY   = 323.3648

EPHEMERIS_TYPE = 0
CLASSIFICATION_TYPE = U
NORAD_CAT_ID   = 27601
ELEMENT_SET_NO = 999
REV_AT_EPOCH   = 19995
BSTAR          = .13707133E-3
MEAN_MOTION_DOT = .35E-5
MEAN_MOTION_DDOT = 0

CCSDS_OMM_VERS = 2.0
CREATION_DATE  = 
ORIGINATOR     = 

OBJECT_NAME    = CZ-4B R/B
OBJECT_ID      = 2003-049C
CENTER_NAME    = EARTH
REF_FRAME      = TEME
TIME_SYSTEM    = UTC
MEAN_ELEMENT_THEORY = SGP/SGP4

EPOCH          = 2025-11-30T23:20:57.127488
MEAN_MOTION    = 14.54892048
ECCENTRICITY   = .00483667
INCLINATION    = 98.6780
RA_OF_ASC_NODE = 321.0930
ARG_OF_PERICENTER = 171.6252
MEAN_ANOMALY   = 188.5762

EPHEMERIS_TYPE = 0
CLASSIFICATION_TYPE = U
NORAD_CAT_ID   = 28059
ELEMENT_SET_NO = 999
REV_AT_EPOCH   = 17224
BSTAR          = .11530521E-3
MEAN_MOTION_DOT = .452E-5
MEAN_MOTION_DDOT = 0

CCSDS_OMM_VERS = 2.0
CREATION_DATE  = 
ORIGINATOR     = 

OBJECT_NAME    = CZ-2C R/B
OBJECT_ID      = 2004-012C
CENTER_NAME    = EARTH
REF_FRAME      = TEME
TIME_SYSTEM    = UTC
MEAN_ELEMENT_THEORY = SGP/SGP4

EPOCH          = 2025-11-30T23:06:22.801824
MEAN_MOTION    = 15.54346917
ECCENTRICITY   = .00172727
INCLINATION    = 97.7452
RA_OF_ASC_NODE = 26.6209
ARG_OF_PERICENTER = 316.2219
MEAN_ANOMALY   = 43.7664

EPHEMERIS_TYPE = 0
CLASSIFICATION_TYPE = U
NORAD_CAT_ID   = 28222
ELEMENT_SET_NO = 999
REV_AT_EPOCH   = 18889
BSTAR          = .56554281E-3
MEAN_MOTION_DOT = .37271E-3
MEAN_MOTION_DDOT = 0

CCSDS_OMM_VERS = 2.0
CREATION_DATE  = 
ORIGINATOR     = 

OBJECT_NAME    = SL-16 R/B
OBJECT_ID      = 2004-021B
CENTER_NAME    = EARTH
REF_FRAME      = TEME
TIME_SYSTEM    = UTC
MEAN_ELEMENT_THEORY = SGP/SGP4

EPOCH          = 2025-11-30T17:48:00.612864
MEAN_MOTION    = 14.14582454
ECCENTRICITY   = .0005893
INCLINATION    = 71.0021
RA_OF_ASC_NODE = 80.1421
ARG_OF_PERICENTER = 215.1116
MEAN_ANOMALY   = 144.9619

EPHEMERIS_TYPE = 0
CLASSIFICATION_TYPE = U
NORAD_CAT_ID   = 28353
ELEMENT_SET_NO = 999
REV_AT_EPOCH   = 10884
BSTAR          = -.6887749E-5
MEAN_MOTION_DOT = -.61E-6
MEAN_MOTION_DDOT = 0

CCSDS_OMM_VERS = 2.0
CREATION_DATE  = 
ORIGINATOR     = 

OBJECT_NAME    = CZ-4B R/B
OBJECT_ID      = 2004-035C
CENTER_NAME    = EARTH
REF_FRAME      = TEME
TIME_SYSTEM    = UTC
MEAN_ELEMENT_THEORY = SGP/SGP4

EPOCH          = 2025-11-30T19:59:50.236512
MEAN_MOTION    = 15.27080936
ECCENTRICITY   = .00324015
INCLINATION    = 97.3631
RA_OF_ASC_NODE = 5.3383
ARG_OF_PERICENTER = 321.6096
MEAN_ANOMALY   = 38.2837

EPHEMERIS_TYPE = 0
CLASSIFICATION_TYPE = U
NORAD_CAT_ID   = 28415
ELEMENT_SET_NO = 999
REV_AT_EPOCH   = 16481
BSTAR          = .34587183E-3
MEAN_MOTION_DOT = .9256E-4
MEAN_MOTION_DDOT = 0

CCSDS_OMM_VERS = 2.0
CREATION_DATE  = 
ORIGINATOR     = 

OBJECT_NAME    = CZ-2C R/B
OBJECT_ID      = 2004-046B
CENTER_NAME    = EARTH
REF_FRAME      = TEME
TIME_SYSTEM    = UTC
MEAN_ELEMENT_THEORY = SGP/SGP4

EPOCH          = 2025-11-30T18:11:35.502720
MEAN_MOTION    = 14.26932182
ECCENTRICITY   = .01407557
INCLINATION    = 98.1979
RA_OF_ASC_NODE = 250.8813
ARG_OF_PERICENTER = 87.4536
MEAN_ANOMALY   = 274.2750

EPHEMERIS_TYPE = 0
CLASSIFICATION_TYPE = U
NORAD_CAT_ID   = 28480
ELEMENT_SET_NO = 999
REV_AT_EPOCH   = 9439
BSTAR          = .90930837E-4
MEAN_MOTION_DOT = .205E-5
MEAN_MOTION_DDOT = 0

CCSDS_OMM_VERS = 2.0
CREATION_DATE  = 
ORIGINATOR     = 

OBJECT_NAME    = ARIANE 5 R/B
OBJECT_ID      = 2004-049H
CENTER_NAME    = EARTH
REF_FRAME      = TEME
TIME_SYSTEM    = UTC
MEAN_ELEMENT_THEORY = SGP/SGP4

EPOCH          = 2025-11-30T22:16:41.106720
MEAN_MOTION    = 14.84968604
ECCENTRICITY   = .00836841
INCLINATION    = 98.2518
RA_OF_ASC_NODE = 134.7865
ARG_OF_PERICENTER = 311.7483
MEAN_ANOMALY   = 47.6596

EPHEMERIS_TYPE = 0
CLASSIFICATION_TYPE = U
NORAD_CAT_ID   = 28499
ELEMENT_SET_NO = 999
REV_AT_EPOCH   = 13113
BSTAR          = .12313341E-3
MEAN_MOTION_DOT = .1051E-4
MEAN_MOTION_DDOT = 0

